FLOCK 4G-30             
1 62679U 25009BY  26068.70871344  .00013147  00000+0  49475-3 0  9999
2 62679  97.3969 150.6012 0003795 342.4152  17.6955 15.27244548121341
STARLINK-32763          
1 62750U 25014R   26067.60053711  .00037707  00000+0  13710-2 0  9993
2 62750  42.9992 160.2923 0001399 268.2367  91.8325 15.27621488 63096
